1 20253U 89077A   26128.49738182 -.00000360  00000-0  00000+0 0  9993
2 20253  12.4328 351.4061 0006618  21.8996 157.8147  1.00274569260162
1 20776U 90079A   26128.76429647  .00000133  00000-0  00000+0 0  9997
2 20776  13.3532 350.0815 0002451  55.3409 129.6897  1.00276267130491
1 22787U 93056A   26128.83458343  .00000132  00000-0  00000+0 0  9991
2 22787  11.8817   3.7742 0008929 356.7797 195.1670  1.00270258118159
1 23467U 95003A   26128.49418159 -.00000013  00000-0  00000+0 0  9993
2 23467   9.6977  13.3647 0003409  30.5000 172.7396  1.00275208114556
1 23967U 96042A   26128.11155933 -.00000262  00000-0  00000+0 0  9995
2 23967  11.0810  17.3029 0005856 100.3495 111.1534  1.00227575109081
1 25544U 98067A   26128.77995169  .00007005  00000-0  13445-3 0  9994
2 25544  51.6310 135.1683 0007383  37.9322 322.2185 15.49151526565640
1 25967U 99063A   26128.10044926 -.00000181  00000-0  00000+0 0  9991
2 25967   9.8410  27.4210 0002559 359.2152 212.6725  1.00260327 96941
1 27168U 02001A   26128.83285008  .00000106  00000-0  00000+0 0  9996
2 27168  11.1334  22.1432 0099753   7.3644 155.8942  1.00273836 32560
1 27607U 02058C   26128.77363422  .00000968  00000-0  13154-3 0  9990
2 27607  64.5523 250.9199 0075633 269.6660  89.5780 14.82963353258616
1 28117U 03057A   26128.82448478 -.00000093  00000-0  00000+0 0  9990
2 28117   8.9307  34.0234 0002451  15.7922 189.0712  1.00268394 82058
1 28899U 05044A   26128.64345279 -.00000251  00000-0  00000+0 0  9996
2 28899   5.0444  43.7433 0002937  11.7848 186.0883  1.00272673 75126
1 30794U 07007B   26128.84783953 -.00000262  00000-0  00000+0 0  9993
2 30794   5.2028  74.2054 0004061 340.6123 212.2982  1.00273898 70308
1 32294U 07056B   26128.62007793  .00000150  00000-0  00000+0 0  9996
2 32294   5.1539  73.9613 0003856 327.8737  72.9473  1.00274846 67808
1 35943U 09054B   26128.82136536  .00000032  00000-0  00000+0 0  9999
2 35943   0.0264  57.7940 0003340 355.4012 172.1967  1.00269644 60911
1 36582U 10021B   26128.83155007  .00000096  00000-0  00000+0 0  9990
2 36582   0.0093 115.8662 0003071 310.1673 113.1497  1.00273805 58565
1 38098U 12011A   26128.82529895 -.00000051  00000-0  00000+0 0  9996
2 38098   0.0072 114.9566 0001841 302.7679 178.1203  1.00271816  6799
1 39034U 12075A   26128.83943677  .00000107  00000-0  00000+0 0  9997
2 39034   0.0687 354.4085 0003788  58.1793 169.0284  1.00272649 48766
1 39215U 13038A   26128.83389008  .00000142  00000-0  00000+0 0  9999
2 39215   2.9942   1.6998 0002690  79.3875 110.6540  1.00271944 43627
1 40296U 14069A   26128.30305565  .00000215  00000-0  00000+0 0  9994
2 40296  63.4438 219.2609 6662493 270.8280  19.4871  2.00587331 84431
1 40931U 15052B   25151.18580175  .00001241  00000-0  78118-4 0  9996
2 40931   6.0006  24.0987 0012733 338.8432  21.1169 14.78805930523159
1 43678U 18084H   26128.82143453  .00002401  00000-0  19677-3 0  9998
2 43678  98.1090 323.3457 0012237 307.1606  52.8498 15.00257962410314
1 43700U 18090A   26128.83406343  .00000152  00000-0  00000+0 0  9999
2 43700   0.0022  94.4024 0001649 345.3265 113.0119  1.00272852 27283
1 43803U 18099AX  26128.14758207  .00013347  00000-0  42861-3 0  9990
2 43803  97.4155 190.8790 0006775  64.9539 295.2405 15.32399367407495
1 44453U 19046A   26127.84030697 -.00000005  00000-0  00000+0 0  9990
2 44453  63.0909  55.9567 7064844 274.7544  14.8603  2.00609530 49530
1 44909U 19096E   26128.36713840  .00000012  00000-0  76094-5 0  9996
2 44909  82.5247   6.1689 0216531 237.3560 120.6485 12.79748155297250
1 45254U 20015A   26128.58697157 -.00000070  00000-0  00000+0 0  9992
2 45254  65.5218 323.1682 6870422 278.5963  14.9236  2.00602245 45491
1 52145U 22030A   26128.09371039  .00000235  00000-0  00000+0 0  9994
2 52145  62.6801 145.0929 6773134 272.8903  17.7285  2.00616612 30225
1 57167U 23091B   26010.59363612  .08733485  25619-5  12458-2 0  9993
2 57167  97.4978  91.1570 0009532 282.8011  77.2220 16.34765267141469
1 59112U 24043Q   26128.87601138  .00034698  00000-0  49913-3 0  9993
2 59112  97.5497 276.9622 0006159 348.5957  11.5156 15.55974793121779
1 67291U 25313AV  26128.47003748  .00011721  00000-0  46798-3 0  9990
2 67291  97.3937 204.1254 0010553 131.1803 229.0347 15.25255015 19934
1 26635U 00080A   21013.46269075 0.00000000  00000-0  00000-0 0    09
2 26635   9.2857  29.8038 0014383 186.3086 173.6859  1.00273100    09
1 34810U 09020A   26118.58802400 0.00000000  00000-0  00000-0 0    05
2 34810   3.0809  80.0043 0003222 250.4250 109.5484  1.00270000    01
1 40614U 15022B   25359.93496764 0.00000000  00000-0  00000-0 0    00
2 40614   0.0160 108.2839 0003453 352.8976   7.0980  1.00270000    04
